NORAD_CAT_ID,OBJECT_NAME,OBJECT_TYPE,EPOCH,MEAN_MOTION,ECCENTRICITY,INCLINATION,RA_OF_ASC_NODE,ARG_OF_PERICENTER,MEAN_ANOMALY,BSTAR,MEAN_MOTION_DOT,MEAN_MOTION_DDOT,TLE_LINE0,TLE_LINE1,TLE_LINE2,SEMIMAJOR_AXIS,PERIOD,APOGEE,PERIGEE,DECAYED
53859.0,STARLINK-4790,PAYLOAD,2022-12-12 14:00:01,15.45046181,0.0001388,53.2173,201.9472,67.9764,129.904,-0.026051,-0.01142814,0.0,0 STARLINK-4790,1 53859U 22114AT  22346.58334491 -.01142814  00000-0 -26051-1 0  9992,2 53859  53.2173 201.9472 0001388  67.9764 129.9040 15.45046181  1301,6809.379,93.201,432.19,430.299,0.0
53859.0,STARLINK-4790,PAYLOAD,2022-12-12 16:00:01,15.44842952,0.0001219,53.2175,201.5522,69.8552,231.8312,-0.026239,-0.01142987,0.0,0 STARLINK-4790,1 53859U 22114AT  22346.66668981 -.01142987  00000-0 -26239-1 0  9994,2 53859  53.2175 201.5522 0001219  69.8552 231.8312 15.44842952 13873,6809.977,93.213,432.672,431.011,0.0
53859.0,STARLINK-4790,PAYLOAD,2022-12-12 22:00:00,15.44231663,0.0001444,53.2174,200.3687,58.4381,194.0429,-0.026768,-0.01142014,0.0,0 STARLINK-4790,1 53859U 22114AT  22346.91667824 -.01142014  00000-0 -26768-1 0  9995,2 53859  53.2174 200.3687 0001444  58.4381 194.0429 15.44231663  1300,6811.774,93.25,434.622,432.655,0.0
53859.0,STARLINK-4790,PAYLOAD,2022-12-13 14:00:01,15.42350889,0.0001469,53.2182,197.213,93.7476,265.0389,-0.0040272,-0.00172868,0.0,0 STARLINK-4790,1 53859U 22114AT  22347.58334491 -.00172868  00000-0 -40272-2 0  9996,2 53859  53.2182 197.2130 0001469  93.7476 265.0389 15.42350889 14016,6817.31,93.364,440.177,438.174,0.0
53859.0,STARLINK-4790,PAYLOAD,2022-12-13 22:00:00,15.41792745,0.0001323,53.2176,195.6388,55.7276,354.6892,-0.029172,-0.01145446,0.0,0 STARLINK-4790,1 53859U 22114AT  22347.91667824 -.01145446  00000-0 -29172-1 0  9990,2 53859  53.2176 195.6388 0001323  55.7276 354.6892 15.41792745 14071,6818.955,93.398,441.722,439.918,0.0
53859.0,STARLINK-4790,PAYLOAD,2022-12-14 14:00:01,15.40171542,0.000153,53.2171,192.4933,53.6572,97.1591,-0.030998,-0.01152333,0.0,0 STARLINK-4790,1 53859U 22114AT  22348.58334491 -.01152333  00000-0 -30998-1 0  9996,2 53859  53.2171 192.4933 0001530  53.6572  97.1591 15.40171542  1305,6823.74,93.496,446.649,444.561,0.0
53859.0,STARLINK-4790,PAYLOAD,2022-12-14 22:00:00,15.39348948,0.0001426999999999,53.2174,190.9263,71.4837,128.0696,-0.031468,-0.0113949,0.0,0 STARLINK-4790,1 53859U 22114AT  22348.91667824 -.01139490  00000-0 -31468-1 0  9994,2 53859  53.2174 190.9263 0001427  71.4837 128.0696 15.39348948  1308,6826.17,93.546,449.009,447.061,0.0
53859.0,STARLINK-4790,PAYLOAD,2022-12-15 02:00:01,15.38941984,0.0001163,53.2172,190.1425,64.0775,339.4765,-0.031889,-0.0113927,0.0,0 STARLINK-4790,1 53859U 22114AT  22349.08334491 -.01139270  00000-0 -31889-1 0  9997,2 53859  53.2172 190.1425 0001163  64.0775 339.4765 15.38941984 14255,6827.374,93.571,450.033,448.445,0.0
53859.0,STARLINK-4790,PAYLOAD,2022-12-15 14:00:01,15.37721315,0.0001317,53.2177,187.7925,61.5896,232.4998,-0.033181,-0.01138913,0.0,0 STARLINK-4790,1 53859U 22114AT  22349.58334491 -.01138913  00000-0 -33181-1 0  9992,2 53859  53.2177 187.7925 0001317  61.5896 232.4998 15.37721315  1309,6830.986,93.645,453.751,451.952,0.0
53859.0,STARLINK-4790,PAYLOAD,2022-12-15 22:00:00,15.36908659,0.0001357,53.2175,186.2314,52.919,286.9696,-0.034163,-0.01141688,0.0,0 STARLINK-4790,1 53859U 22114AT  22349.91667824 -.01141688  00000-0 -34163-1 0  9992,2 53859  53.2175 186.2314 0001357  52.9190 286.9696 15.36908659  1304,6833.394,93.695,456.186,454.332,0.0
53859.0,STARLINK-4790,PAYLOAD,2022-12-16 04:00:00,15.3629881,0.0001385,53.2172,185.0594,55.5249,228.0731,-0.034881,-0.01142734,0.0,0 STARLINK-4790,1 53859U 22114AT  22350.16667824 -.01142734  00000-0 -34881-1 0  9991,2 53859  53.2172 185.0594 0001385  55.5249 228.0731 15.36298810 14417,6835.2019999999975,93.732,458.014,456.121,0.0
53859.0,STARLINK-4790,PAYLOAD,2022-12-16 14:00:01,15.352963399999998,0.0001399,53.2167,183.1089,50.3944,18.1554,-0.036672,-0.01161342,0.0,0 STARLINK-4790,1 53859U 22114AT  22350.58334491 -.01161342  00000-0 -36672-1 0  9994,2 53859  53.2167 183.1089 0001399  50.3944  18.1554 15.35296340  1309,6838.177,93.793,460.999,459.086,0.0
53859.0,STARLINK-4790,PAYLOAD,2022-12-16 22:00:00,15.34465789,0.0001604,53.2175,181.5537,47.2763,64.1477,-0.036863,-0.01138837,0.0,0 STARLINK-4790,1 53859U 22114AT  22350.91667824 -.01138837  00000-0 -36863-1 0  9995,2 53859  53.2175 181.5537 0001604  47.2763  64.1477 15.34465789  1300,6840.645,93.844,463.607,461.412,0.0
53859.0,STARLINK-4790,PAYLOAD,2022-12-17 00:00:00,15.34258275,0.0001573,53.2173,181.1647,52.3341,159.6551,-0.036843,-0.01131375,0.0,0 STARLINK-4790,1 53859U 22114AT  22351.00001157 -.01131375  00000-0 -36843-1 0  9995,2 53859  53.2173 181.1647 0001573  52.3341 159.6551 15.34258275 14543,6841.262,93.856,464.203,462.05,0.0
53859.0,STARLINK-4790,PAYLOAD,2022-12-17 14:00:01,15.32863276,0.0001524,53.2168,178.44299999999996,56.0191,138.2584,-0.040051,-0.01172432,0.0,0 STARLINK-4790,1 53859U 22114AT  22351.58335648 -.01172432  00000-0 -40051-1 0  9998,2 53859  53.2168 178.4430 0001524  56.0191 138.2584 15.32863276  1306,6845.4119999999975,93.942,468.32,466.233,0.0
53859.0,STARLINK-4790,PAYLOAD,2022-12-17 22:00:00,15.32026769,0.0001424,53.217,176.8933,67.9562,166.2004,-0.0399,-0.01140523,0.0,0 STARLINK-4790,1 53859U 22114AT  22351.91667824 -.01140523  00000-0 -39900-1 0  9996,2 53859  53.2170 176.8933 0001424  67.9562 166.2004 15.32026769 14682,6847.903,93.993,470.74300000000005,468.793,0.0
53859.0,STARLINK-4790,PAYLOAD,2022-12-18 14:00:01,15.30397134,0.0001235,53.2176,173.7943,73.8944,237.1976,-0.041867,-0.01137356,0.0,0 STARLINK-4790,1 53859U 22114AT  22352.58334491 -.01137356  00000-0 -41867-1 0  9996,2 53859  53.2176 173.7943 0001235  73.8944 237.1976 15.30397134  1301,6852.764,94.093,475.475,473.782,0.0
53859.0,STARLINK-4790,PAYLOAD,2022-12-18 22:00:00,15.29582318,0.0001317,53.2175,172.2504,56.4825,291.6088,-0.042888,-0.01136053,0.0,0 STARLINK-4790,1 53859U 22114AT  22352.91667824 -.01136053  00000-0 -42888-1 0  9999,2 53859  53.2175 172.2504 0001317  56.4825 291.6088 15.29582318  1300,6855.196999999999,94.143,477.965,476.159,0.0
53859.0,STARLINK-4790,PAYLOAD,2022-12-19 08:00:01,15.28564145,0.0001636999999999,53.2174,170.3189,44.0396,78.9283,-0.044198,-0.01134642,0.0,0 STARLINK-4790,1 53859U 22114AT  22353.33334491 -.01134642  00000-0 -44198-1 0  9995,2 53859  53.2174 170.3189 0001637  44.0396  78.9283 15.28564145 14908,6858.241,94.206,481.228,478.983,0.0
53859.0,STARLINK-4790,PAYLOAD,2022-12-19 10:00:00,15.28362378,0.0001601,53.2172,169.933,51.1391,170.62,-0.044608,-0.01137757,0.0,0 STARLINK-4790,1 53859U 22114AT  22353.41667824 -.01137757  00000-0 -44608-1 0  9999,2 53859  53.2172 169.9330 0001601  51.1391 170.6200 15.28362378  1306,6858.844,94.218,481.807,479.611,0.0
53859.0,STARLINK-4790,PAYLOAD,2022-12-19 22:00:00,15.27138584,0.0001704,53.2174,167.6246,40.8604,52.3647,-0.046068,-0.01132213,0.0,0 STARLINK-4790,1 53859U 22114AT  22353.91667824 -.01132213  00000-0 -46068-1 0  9998,2 53859  53.2174 167.6246 0001704  40.8604  52.3647 15.27138584  1305,6862.5080000000025,94.294,485.543,483.204,0.0
53859.0,STARLINK-4790,PAYLOAD,2022-12-20 14:00:01,15.25528601,0.0001665,53.2168,164.5482,54.3052,104.1119,-0.049512,-0.01171969,0.0,0 STARLINK-4790,1 53859U 22114AT  22354.58334491 -.01171969  00000-0 -49512-1 0  9991,2 53859  53.2168 164.5482 0001665  54.3052 104.1119 15.25528601  1300,6867.3359999999975,94.394,490.344,488.057,0.0
53859.0,STARLINK-4790,PAYLOAD,2022-12-21 08:00:01,15.23680077,0.000136,53.2173,161.0987,53.6164,263.4825,-0.051103,-0.01146197,0.0,0 STARLINK-4790,1 53859U 22114AT  22355.33334491 -.01146197  00000-0 -51103-1 0  9999,2 53859  53.2173 161.0987 0001360  53.6164 263.4825 15.23680077 15207,6872.889,94.508,495.68800000000016,493.819,0.0
53859.0,STARLINK-4790,PAYLOAD,2022-12-21 14:00:01,15.23071283,0.0001541,53.2175,159.9518,56.2373,192.6517,-0.052153,-0.0114851,0.0,0 STARLINK-4790,1 53859U 22114AT  22355.58334491 -.01148510  00000-0 -52153-1 0  9993,2 53859  53.2175 159.9518 0001541  56.2373 192.6517 15.23071283  1307,6874.72,94.546,497.645,495.526,0.0
53859.0,STARLINK-4790,PAYLOAD,2022-12-22 08:00:01,15.21238893,0.0001305,53.2172,156.5143,56.5757,344.3877,-0.054963,-0.01146468,0.0,0 STARLINK-4790,1 53859U 22114AT  22356.33334491 -.01146468  00000-0 -54963-1 0  9998,2 53859  53.2172 156.5143 0001305  56.5757 344.3877 15.21238893 15364,6880.24,94.66,503.002,501.207,0.0
53859.0,STARLINK-4790,PAYLOAD,2022-12-22 14:00:01,15.20630709,0.0001409999999999,53.2174,155.3718,53.2483,277.3044,-0.056105,-0.01149298,0.0,0 STARLINK-4790,1 53859U 22114AT  22356.58334491 -.01149298  00000-0 -56105-1 0  9999,2 53859  53.2174 155.3718 0001410  53.2483 277.3044 15.20630709  1309,6882.074000000001,94.698,504.909,502.969,0.0
53859.0,STARLINK-4790,PAYLOAD,2022-12-23 00:00:00,15.19612752,0.0001608,53.2171,153.4693,45.4449,46.537,-0.05771,-0.01147596,0.0,0 STARLINK-4790,1 53859U 22114AT  22357.00001157 -.01147596  00000-0 -57710-1 0  9999,2 53859  53.2171 153.4693 0001608  45.4449  46.5370 15.19612752  1305,6885.147,94.761,508.119,505.905,0.0
53859.0,STARLINK-4790,PAYLOAD,2022-12-23 08:00:01,15.18811064,0.0001653,53.217,151.9471,48.1399,67.8807,-0.060073,-0.01165482,0.0,0 STARLINK-4790,1 53859U 22114AT  22357.33334491 -.01165482  00000-0 -60073-1 0  9995,2 53859  53.2170 151.9471 0001653  48.1399  67.8807 15.18811064 15510,6887.57,94.811,510.573,508.296,0.0
53859.0,STARLINK-4790,PAYLOAD,2022-12-23 14:00:01,15.18208978,0.0001526,53.217,150.8085,49.2738,354.1337,-0.0618059999999999,-0.01177278,0.0,0 STARLINK-4790,1 53859U 22114AT  22357.58334491 -.01177278  00000-0 -61806-1 0  9993,2 53859  53.2170 150.8085 0001526  49.2738 354.1337 15.18208978  1303,6889.391,94.849,512.307,510.204,0.0
